NORAD_CAT_ID,OBJECT_NAME,OBJECT_TYPE,EPOCH,MEAN_MOTION,ECCENTRICITY,INCLINATION,RA_OF_ASC_NODE,ARG_OF_PERICENTER,MEAN_ANOMALY,BSTAR,MEAN_MOTION_DOT,MEAN_MOTION_DDOT,TLE_LINE0,TLE_LINE1,TLE_LINE2,SEMIMAJOR_AXIS,PERIOD,APOGEE,PERIGEE,DECAYED
55284.0,STARLINK-5337,PAYLOAD,2023-02-05 00:00:02,15.74225423,0.00036,70.0001,22.6473,267.8621,73.5399,-0.0063902,-0.00836123,0.0,0 STARLINK-5337,1 55284U 23010R   23036.00002315 -.00836123  00000-0 -63902-2 0  9992,2 55284  70.0001  22.6473 0003600 267.8621  73.5399 15.74225423  3092,6724.973,91.474,349.259,344.417,0.0
55284.0,STARLINK-5337,PAYLOAD,2023-02-05 14:00:01,15.73192572,0.0003744,69.9975,20.9896,270.8327,134.3556,-0.0069461,-0.00866152,0.0,0 STARLINK-5337,1 55284U 23010R   23036.58335648 -.00866152  00000-0 -69461-2 0  9994,2 55284  69.9975  20.9896 0003744 270.8327 134.3556 15.73192572  1305,6727.916,91.534,352.3,347.262,0.0
55284.0,STARLINK-5337,PAYLOAD,2023-02-05 22:00:00,15.72600232,0.0003608,69.998,20.0483,266.5833,225.4047,-0.0070055,-0.00852944,0.0,0 STARLINK-5337,1 55284U 23010R   23036.91667824 -.00852944  00000-0 -70055-2 0  9990,2 55284  69.9980  20.0483 0003608 266.5833 225.4047 15.72600232  1300,6729.606,91.568,353.899,349.043,0.0
55284.0,STARLINK-5337,PAYLOAD,2023-02-06 06:00:00,15.71954517,0.0003559,69.9982,19.1081,272.2395,305.927,-0.0066865,-0.00797292,0.0,0 STARLINK-5337,1 55284U 23010R   23037.25001157 -.00797292  00000-0 -66865-2 0  9997,2 55284  69.9982  19.1081 0003559 272.2395 305.9270 15.71954517  3296,6731.448,91.606,355.709,350.918,0.0
55284.0,STARLINK-5337,PAYLOAD,2023-02-06 14:00:01,15.71403211,0.0003615,69.9979,18.1684,270.4388,33.1512,-0.0075862,-0.0087542,0.0,0 STARLINK-5337,1 55284U 23010R   23037.58334491 -.00875420  00000-0 -75862-2 0  9990,2 55284  69.9979  18.1684 0003615 270.4388  33.1512 15.71403211  1304,6733.023,91.638,357.322,352.454,0.0
55284.0,STARLINK-5337,PAYLOAD,2023-02-06 22:00:00,15.70805298,0.0003661,69.9981,17.2298,268.125,120.1783,-0.0075655,-0.00853565,0.0,0 STARLINK-5337,1 55284U 23010R   23037.91667824 -.00853565  00000-0 -75655-2 0  9992,2 55284  69.9981  17.2298 0003661 268.1250 120.1783 15.70805298  1308,6734.731,91.673,359.062,354.131,0.0
55284.0,STARLINK-5337,PAYLOAD,2023-02-07 00:00:00,15.70639387,0.0003547,69.9985,16.9951,269.9251,229.4532,-0.0072863,-0.00819659,0.0,0 STARLINK-5337,1 55284U 23010R   23038.00001157 -.00819659  00000-0 -72863-2 0  9998,2 55284  69.9985  16.9951 0003547 269.9251 229.4532 15.70639387  3410,6735.206,91.682,359.459,354.682,0.0
55284.0,STARLINK-5337,PAYLOAD,2023-02-07 06:00:00,15.69987681,0.0003562,69.9986,16.2918,274.3242,198.0273,-0.00087708,-0.00104652,0.0,0 STARLINK-5337,1 55284U 23010R   23038.25001157 -.00104652  00000-0 -87708-3 0  9990,2 55284  69.9986  16.2918 0003562 274.3242 198.0273 15.69987681  3441,6737.069,91.72,361.334,356.535,0.0
55284.0,STARLINK-5337,PAYLOAD,2023-02-07 14:00:01,15.69960357,0.0003359,69.9992,15.3542,270.7667,284.9445,-0.00073746,-0.00088095,0.0,0 STARLINK-5337,1 55284U 23010R   23038.58334491 -.00088095  00000-0 -73746-3 0  9995,2 55284  69.9992  15.3542 0003359 270.7667 284.9445 15.69960357  1306,6737.147,91.722,361.275,356.749,0.0
55284.0,STARLINK-5337,PAYLOAD,2023-02-07 16:00:01,15.69910301,0.0003328,69.9995,15.1198,268.0314,38.597,2.1579e-05,2.381e-05,0.0,0 STARLINK-5337,1 55284U 23010R   23038.66668981  .00002381  00000-0  21579-4 0  9998,2 55284  69.9995  15.1198 0003328 268.0314  38.5970 15.69910301  3514,6737.291,91.725,361.398,356.913,0.0
55284.0,STARLINK-5337,PAYLOAD,2023-02-07 22:00:00,15.69916736,0.0003423,70.0004,14.417,265.0578,13.9905,0.00019011,0.00022701,0.0,0 STARLINK-5337,1 55284U 23010R   23038.91667824  .00022701  00000-0  19011-3 0  9996,2 55284  70.0004  14.4170 0003423 265.0578  13.9905 15.69916736  1303,6737.272,91.725,361.443,356.831,0.0
55284.0,STARLINK-5337,PAYLOAD,2023-02-08 14:00:01,15.69930271,0.0003409,70.0005,12.5425,271.4165,174.3087,-0.00028109,-0.00033884,0.0,0 STARLINK-5337,1 55284U 23010R   23039.58334491 -.00033884  00000-0 -28109-3 0  9995,2 55284  70.0005  12.5425 0003409 271.4165 174.3087 15.69930271  1306,6737.233,91.724,361.395,356.802,0.0
55284.0,STARLINK-5337,PAYLOAD,2023-02-08 22:00:00,15.69944803,0.0003399,70.0008,11.6056,267.0805,261.9688,-0.00010202,-0.00012472,0.0,0 STARLINK-5337,1 55284U 23010R   23039.91667824 -.00012472  00000-0 -10202-3 0  9996,2 55284  70.0008  11.6056 0003399 267.0805 261.9688 15.69944803  1305,6737.192,91.723,361.347,356.767,0.0
55284.0,STARLINK-5337,PAYLOAD,2023-02-09 12:00:00,15.69924768,0.0003478,70.0001,9.9654,275.3201,309.5739,-0.00012566,-0.00015296,0.0,0 STARLINK-5337,1 55284U 23010R   23040.50001157 -.00015296  00000-0 -12566-3 0  9996,2 55284  70.0001   9.9654 0003478 275.3201 309.5739 15.69924768  1306,6737.249,91.724,361.457,356.771,0.0
55284.0,STARLINK-5337,PAYLOAD,2023-02-09 22:00:00,15.69937488,0.0003446,70.0006,8.7938,264.4273,154.6334,-0.00010378,-0.0001268,0.0,0 STARLINK-5337,1 55284U 23010R   23040.91667824 -.00012680  00000-0 -10378-3 0  9993,2 55284  70.0006   8.7938 0003446 264.4273 154.6334 15.69937488  1309,6737.213,91.723,361.399,356.756,0.0
55284.0,STARLINK-5337,PAYLOAD,2023-02-10 02:00:01,15.69949443,0.0003505,70.0008,8.3252,266.8718,13.8625,-0.00051936,-0.00062268,0.0,0 STARLINK-5337,1 55284U 23010R   23041.08334491 -.00062268  00000-0 -51936-3 0  9995,2 55284  70.0008   8.3252 0003505 266.8718  13.8625 15.69949443  3891,6737.179,91.723,361.405,356.682,0.0
55284.0,STARLINK-5337,PAYLOAD,2023-02-10 04:00:00,15.69919194,0.0003506,70.0007,8.0909,268.538,123.0422,-0.0001212,-0.00014758,0.0,0 STARLINK-5337,1 55284U 23010R   23041.16667824 -.00014758  00000-0 -12120-3 0  9996,2 55284  70.0007   8.0909 0003506 268.5380 123.0422 15.69919194  1304,6737.265,91.724,361.492,356.768,0.0
55284.0,STARLINK-5337,PAYLOAD,2023-02-10 09:58:59,15.69941307,0.0003038,70.0004,7.3901,273.7672,86.3177,0.00019303,0.00023077,0.0,0 STARLINK-5337,1 55284U 23010R   23041.41597031  .00023077  00000-0  19303-3 0  9998,2 55284  70.0004   7.3901 0003038 273.7672  86.3177 15.69941307  3948,6737.202,91.723,361.114,357.02,0.0
55284.0,STARLINK-5337,PAYLOAD,2023-02-11 04:20:01,15.69935033,0.000385,70.0004,5.2393,266.6411,93.4345,0.00037095,0.00044653,0.0,0 STARLINK-5337,1 55284U 23010R   23042.18057713  .00044653  00000-0  37095-3 0  9992,2 55284  70.0004   5.2393 0003850 266.6411  93.4345 15.69935033  4063,6737.22,91.724,361.679,356.491,0.0
55284.0,STARLINK-5337,PAYLOAD,2023-02-11 08:55:16,15.69972884,0.0003639,70.0006,4.7031,257.1489,102.93,0.00081864,0.00099603,0.0,0 STARLINK-5337,1 55284U 23010R   23042.37172428  .00099603  00000-0  81864-3 0  9992,2 55284  70.0006   4.7031 0003639 257.1489 102.9300 15.69972884  4098,6737.112,91.721,361.428,356.525,0.0
55284.0,STARLINK-5337,PAYLOAD,2023-02-12 03:16:18,15.69964589,0.0003034,70.0007,2.5533,255.4395,104.6464,0.00047935,0.00057918,0.0,0 STARLINK-5337,1 55284U 23010R   23043.13632650  .00057918  00000-0  47935-3 0  9999,2 55284  70.0007   2.5533 0003034 255.4395 104.6464 15.69964589  4215,6737.135,91.722,361.044,356.956,0.0
55284.0,STARLINK-5337,PAYLOAD,2023-02-12 06:19:48,15.69937846,0.0003486,70.0008,2.1949,255.4086,104.6723,0.00016147,0.00019259,0.0,0 STARLINK-5337,1 55284U 23010R   23043.26375898  .00019259  00000-0  16147-3 0  9998,2 55284  70.0008   2.1949 0003486 255.4086 104.6723 15.69937846  4237,6737.212,91.723,361.425,356.728,0.0
55284.0,STARLINK-5337,PAYLOAD,2023-02-13 03:44:21,15.69895309,0.0004127,70.0006,359.6871,274.7874,85.285,-5.3263e-05,-6.606e-05,0.0,0 STARLINK-5337,1 55284U 23010R   23044.15580390 -.00006606  00000-0 -53263-4 0  9997,2 55284  70.0006 359.6871 0004127 274.7874  85.2850 15.69895309  4378,6737.334,91.726,361.979,356.418,0.0
55284.0,STARLINK-5337,PAYLOAD,2023-02-13 14:26:36,15.69948229,0.0003462,69.9996,358.4339,271.6109,88.469,0.00020131,0.00024087,0.0,0 STARLINK-5337,1 55284U 23010R   23044.60181277  .00024087  00000-0  20131-3 0  9996,2 55284  69.9996 358.4339 0003462 271.6109  88.4690 15.69948229  4442,6737.182,91.723,361.38,356.715,0.0
55284.0,STARLINK-5337,PAYLOAD,2023-02-15 06:11:49,15.71036238,0.0007121,70.0003,353.7752,289.5543,70.4884,0.005363,0.00737983,0.0,0 STARLINK-5337,1 55284U 23010R   23046.25820707  .00737983  00000-0  53630-2 0  9992,2 55284  70.0003 353.7752 0007121 289.5543  70.4884 15.71036238  4703,6734.071,91.659,360.732,351.141,0.0
55284.0,STARLINK-5337,PAYLOAD,2023-02-15 13:50:01,15.71680403,0.0009254,70.0,352.8757,310.6369,49.4022,0.0057054,0.00814207,0.0,0 STARLINK-5337,1 55284U 23010R   23046.57641097  .00814207  00000-0  57054-2 0  9999,2 55284  70.0000 352.8757 0009254 310.6369  49.4022 15.71680403  4750,6732.231,91.622,360.326,347.866,0.0
55284.0,STARLINK-5337,PAYLOAD,2023-02-17 22:00:00,15.69999103,0.000345,70.0012,346.3004,272.1927,346.8675,-0.00065138,-0.00078056,0.0,0 STARLINK-5337,1 55284U 23010R   23048.91667824 -.00078056  00000-0 -65138-3 0  9994,2 55284  70.0012 346.3004 0003450 272.1927 346.8675 15.69999103  5127,6737.037,91.72,361.226,356.577,0.0
55284.0,STARLINK-5337,PAYLOAD,2023-02-18 10:39:45,15.69964869,0.0003443,70.001,344.8168,276.2,83.8804,0.00020615,0.0002469,0.0,0 STARLINK-5337,1 55284U 23010R   23049.44427958  .00024690  00000-0  20615-3 0  9999,2 55284  70.0010 344.8168 0003443 276.2000  83.8804 15.69964869  5200,6737.135,91.722,361.319,356.68,0.0
55284.0,STARLINK-5337,PAYLOAD,2023-02-18 13:43:15,15.69988642,0.0003377,70.0012,344.4592,275.1938,84.8872,0.00038861,0.00046901,0.0,0 STARLINK-5337,1 55284U 23010R   23049.57170801  .00046901  00000-0  38861-3 0  9996,2 55284  70.0012 344.4592 0003377 275.1938  84.8872 15.69988642  5530,6737.067,91.72,361.207,356.656,0.0
55284.0,STARLINK-5337,PAYLOAD,2023-02-18 21:22:01,15.69920659,0.0003375,70.0014,343.5629,265.0756,95.0055,0.00033305,0.00040019,0.0,0 STARLINK-5337,1 55284U 23010R   23049.89029559  .00040019  00000-0  33305-3 0  9996,2 55284  70.0014 343.5629 0003375 265.0756  95.0055 15.69920659  5279,6737.261,91.724,361.4,356.852,0.0
